{
  "type": "FeatureCollection",
  "features": [
    {
      "type": "Feature",
      "geometry": {
        "coordinates": [
          [
            [
              -123.99695934595182,
              40.16
            ],
            [
              -123.83251148547124,
              40.16
            ],
            [
              -123.83251148547124,
              40.26
            ],
            [
              -123.99695934595182,
              40.26
            ],
            [
              -123.99695934595182,
              40.16
            ]
          ]
        ],
        "type": "Polygon"
      },
      "properties": {
        "name": "Thomas",
        "anchor": "{\"latitude\": 40.205889035286134, \"longitude\": -123.89681666989158}"
      }
    }
  ]
}