{
 "type": "FeatureCollection",
 "features": [
  {
   "type": "Feature",
   "geometry": {
    "type": "Polygon",
    "coordinates": [
     [
      [
       -123.64470108302258,
       39.71444964142597
      ],
      [
       -123.64266254142558,
       39.710747434572276
      ],
      [
       -123.64224200253103,
       39.707948202156345
      ],
      [
       -123.64812774508736,
       39.69151580288466
      ],
      [
       -123.63536715973747,
       39.675973956039456
      ],
      [
       -123.63355058387876,
       39.66511668407976
      ],
      [
       -123.61395974670857,
       39.6531263290434
      ],
      [
       -123.56895372892922,
       39.63075149737318
      ],
      [
       -123.5461807651316,
       39.63249924219524
      ],
      [
       -123.53840444660163,
       39.63583770363115
      ],
      [
       -123.54075182197761,
       39.64009317497273
      ],
      [
       -123.54063779582864,
       39.64373312108466
      ],
      [
       -123.52419398268526,
       39.668228810372796
      ],
      [
       -123.52252469197558,
       39.67569834236717
      ],
      [
       -123.52035391155438,
       39.67801050340592
      ],
      [
       -123.51719086961948,
       39.67948907389152
      ],
      [
       -123.50413940627435,
       39.68036213924129
      ],
      [
       -123.50351188626873,
       39.689774083338776
      ],
      [
       -123.5025836814779,
       39.69255666239235
      ],
      [
       -123.499585886445,
       39.69528441449108
      ],
      [
       -123.49502058932289,
       39.696573337233396
      ],
      [
       -123.49743620163176,
       39.704750892628965
      ],
      [
       -123.50679925532138,
       39.71140357662766
      ],
      [
       -123.51374293117928,
       39.724852356856175
      ],
      [
       -123.52203473109083,
       39.73197072711208
      ],
      [
       -123.52405059630188,
       39.736909549074085
      ],
      [
       -123.54043478490851,
       39.74547847286995
      ],
      [
       -123.54354025829372,
       39.748208362646835
      ],
      [
       -123.55388198305401,
       39.76906183313974
      ],
      [
       -123.55886709928173,
       39.772504066826635
      ],
      [
       -123.56046750832914,
       39.775822154025214
      ],
      [
       -123.56013450737902,
       39.77865339903339
      ],
      [
       -123.55895900985598,
       39.78058983023942
      ],
      [
       -123.55709862395786,
       39.782174776235706
      ],
      [
       -123.55386782788263,
       39.783499232028
      ],
      [
       -123.55426705917438,
       39.78663452468325
      ],
      [
       -123.55173982224807,
       39.79527245417355
      ],
      [
       -123.57459950585813,
       39.819038708588536
      ],
      [
       -123.61887076142455,
       39.82280851137433
      ],
      [
       -123.62222431785645,
       39.82391165459865
      ],
      [
       -123.62423673273733,
       39.825348000731225
      ],
      [
       -123.62626027585634,
       39.82922924851696
      ],
      [
       -123.62586489473206,
       39.83202399011671
      ],
      [
       -123.62411233287328,
       39.83448932088845
      ],
      [
       -123.62126931479047,
       39.836249864666314
      ],
      [
       -123.61776869906595,
       39.837037534453366
      ],
      [
       -123.56755793259184,
       39.832901579335825
      ],
      [
       -123.56406732283105,
       39.83170617715394
      ],
      [
       -123.56202090975268,
       39.83015098979679
      ],
      [
       -123.53324343377082,
       39.80000247235945
      ],
      [
       -123.53240946891486,
       39.79595904715102
      ],
      [
       -123.53500553046385,
       39.78711432881922
      ],
      [
       -123.5334269920154,
       39.78473433044085
      ],
      [
       -123.53304714894985,
       39.78204672179142
      ],
      [
       -123.53647464363982,
       39.774280858148025
      ],
      [
       -123.52752411144007,
       39.75613324438207
      ],
      [
       -123.50847639530585,
       39.74574246714519
      ],
      [
       -123.50706632255438,
       39.74376585030119
      ],
      [
       -123.50557101802379,
       39.73924070078254
      ],
      [
       -123.49734417247836,
       39.73196854419287
      ],
      [
       -123.4910619660425,
       39.71954142038279
      ],
      [
       -123.4810261021961,
       39.712369893142295
      ],
      [
       -123.47375416710683,
       39.689343523129054
      ],
      [
       -123.47365916792343,
       39.686506604945606
      ],
      [
       -123.47498933484525,
       39.68386137163649
      ],
      [
       -123.47753820739037,
       39.68181811550891
      ],
      [
       -123.4809103923542,
       39.68069372833046
      ],
      [
       -123.48543606831328,
       39.68078746739786
      ],
      [
       -123.4857912305417,
       39.676205669901414
      ],
      [
       -123.48664879668335,
       39.67411239944251
      ],
      [
       -123.4940427954904,
       39.66772952192818
      ],
      [
       -123.49795121312194,
       39.666184832446916
      ],
      [
       -123.5058019240785,
       39.665781636600755
      ],
      [
       -123.50691231061758,
       39.662665169375465
      ],
      [
       -123.52128330870943,
       39.641548052364925
      ],
      [
       -123.51749539519315,
       39.63516548058021
      ],
      [
       -123.51698221513708,
       39.63304952425949
      ],
      [
       -123.51796334241436,
       39.62956702669642
      ],
      [
       -123.52024528419972,
       39.627313627092285
      ],
      [
       -123.54056466112617,
       39.61859838121634
      ],
      [
       -123.5730087887525,
       39.61625504454306
      ],
      [
       -123.57630478774968,
       39.6172732258028
      ],
      [
       -123.62442432205839,
       39.64119516137993
      ],
      [
       -123.6482062812502,
       39.65570405763581
      ],
      [
       -123.65059289030668,
       39.657886655919654
      ],
      [
       -123.65169421445594,
       39.660614694397864
      ],
      [
       -123.65305685622302,
       39.670818538770945
      ],
      [
       -123.66653605039106,
       39.687041826005604
      ],
      [
       -123.66758121965327,
       39.69031600155154
      ],
      [
       -123.66142898938615,
       39.70802455173906
      ],
      [
       -123.66428911368804,
       39.7134219792602
      ],
      [
       -123.66420490833252,
       39.71683171651072
      ],
      [
       -123.65629363361104,
       39.72741531600712
      ],
      [
       -123.65192657505014,
       39.72989090110855
      ],
      [
       -123.64832235610724,
       39.730289795259566
      ],
      [
       -123.64479483501336,
       39.72959323832834
      ],
      [
       -123.64188118628171,
       39.72790730425303
      ],
      [
       -123.6400250318223,
       39.72548872019205
      ],
      [
       -123.63950428592753,
       39.723412833611555
      ],
      [
       -123.64005651586376,
       39.72063399417428
      ],
      [
       -123.64470108302258,
       39.71444964142597
      ]
     ]
    ]
   },
   "properties": {
    "name": "Wilderness Lodge Run",
    "anchor": "{\"latitude\": 39.833418, \"longitude\": -123.6276}",
    "roads": "Redwood Highway, Branscomb Road, Wilderness Lodge Road"
   }
  }
 ]
}