{"type": "FeatureCollection", "features": [{"type": "Feature", "properties": {"name": "kennedy", "app_url": "https://kennedy.fireatlas.org:9997", "data_root": "/root/swales_dev", "layers_path": "/root/swales_dev/kennedy/app/configuration/kennedy_layers.json", "assets_path": "/root/swales_dev/kennedy/app/configuration/kennedy_assets.json", "shared_dir": "/root/data/", "versioned_outlets": ["html", "webmap", "private_webmap", "webedit", "private_runbook"], "admin_emails": ["gateless@gmail.com"], "base_url": "https://kennedy.fireatlas.org", "port": 9997, "logo_url": "https://cdn.prod.website-files.com/648ea312c78f6d7a5ca19989/64c2933be813b5edc51b9063_WFDlogo_DS.png", "config_only": false}, "geometry": {"coordinates": [[[-123.97552140543539, 40.24197022144608], [-123.97552140543539, 40.23306490576621], [-123.95350380869999, 40.23306490576621], [-123.95350380869999, 40.24197022144608], [-123.97552140543539, 40.24197022144608]]], "type": "Polygon"}}]}
