{
  "type": "FeatureCollection",
  "features": [
    {
      "type": "Feature",
      "geometry": {
        "type": "Polygon",
        "coordinates": [
          [
            [
              -123.574582819,
              39.627271271
            ],
            [
              -123.448661156,
              39.627271271
            ],
            [
              -123.448661156,
              39.784385032
            ],
            [
              -123.574582819,
              39.784385032
            ],
            [
              -123.574582819,
              39.627271271
            ]
          ]
        ]
      },
      "properties": {
        "name": "layt1",
        "description": "Layt1",
        "app_url": "https://fireatlas.org:9000",
        "versioned_outlets": [
          "html",
          "webmap"
        ],
        "cloud": {
          "enabled": true,
          "outlets_bucket": "scs-atlas-outlets-prod",
          "distribution_id": "E1A5S5MB0K3FZG",
          "outlets": [
            "webmap",
            "html"
          ]
        },
        "default_h3_resolution": 10,
        "email_photo_default_layer": "photos",
        "data_root": "/root/swales_dev",
        "shared_dir": "/root/data",
        "base_url": "https://fireatlas.org/layt1",
        "port": 9000,
        "admin_emails": [],
        "logo_url": "",
        "layers": {
          "regions": {
            "layer_def": "regions"
          },
          "roads": {
            "layer_def": "roads"
          },
          "creeks": {
            "layer_def": "creeks"
          },
          "landmarks": {
            "layer_def": "poi"
          },
	  "parcels": {
            "layer_def": "parcels"
          },
          "buildings": {
            "geometry_type": "polygon",
            "color": [
              240,
              0,
              0
            ],
            "fill_color": [
              250,
              0,
              0
            ],
            "add_labels": true,
            "label_deduplicate": true,
            "interaction": "interface"
          },
          "hydrants": {
            "geometry_type": "point",
            "color": [
              255,
              0,
              0
            ],
            "fill_color": [
              255,
              255,
              255
            ],
            "add_labels": true,
            "interaction": "interface",
            "symbol": {
              "png": "hydrant.png",
              "icon": "basic/pushpin"
            },
            "icon-size": 1.5
          },
          "watertanks": {
            "geometry_type": "point",
            "add_labels": true,
            "color": [
              50,
              50,
              250
            ],
            "fill_color": [
              0,
              0,
              250
            ],
            "symbol": {
              "png": "watertank.png",
              "icon": "custom/octy"
            },
            "icon-size": 1.0,
            "show_attributes": true,
            "interaction": "interface",
            "editable_columns": [
              {
                "name": "capacity",
                "type": "string",
                "default": ""
              },
              {
                "name": "access",
                "type": "string",
                "default": "no"
              },
              {
                "name": "fitting",
                "type": "string",
                "default": "no"
              }
            ]
          },
          "photos": {
            "geometry_type": "point",
            "color": [
              255,
              0,
              0
            ],
            "fill_color": [
              255,
              255,
              255
            ],
            "add_labels": true,
            "label_background": true,
            "editable_columns": [
              {
                "name": "name",
                "type": "string",
                "default": "Notes and Comments go here."
              }
            ],
            "symbol": {
              "png": "camera.png",
              "icon": "camera"
            },
            "icon-size": 1.0,
            "access": [
              "admin"
            ],
            "interaction": "interface"
          },
          "private_notes": {
            "geometry_type": "point",
            "color": [
              255,
              0,
              0
            ],
            "fill_color": [
              255,
              255,
              255
            ],
            "add_labels": true,
            "label_background": true,
            "editable_columns": [
              {
                "name": "name",
                "type": "string",
                "default": "Notes and Comments go here."
              }
            ],
            "symbol": {
              "png": "eye.png",
              "icon": "eye"
            },
            "icon-size": 1.0,
            "access": [
              "admin"
            ],
            "interaction": "interface"
          },
          "hazards": {
            "geometry_type": "point",
            "color": [
              255,
              0,
              0
            ],
            "fill_color": [
              255,
              255,
              255
            ],
            "add_labels": true,
            "label_background": true,
            "editable_columns": [
              {
                "name": "name",
                "type": "string",
                "default": "Notes and Comments go here."
              }
            ],
            "symbol": {
              "png": "incident.png",
              "icon": "basic/pushpin"
            },
            "icon-size": 1.0,
            "access": [
              "public",
              "internal",
              "admin"
            ],
            "interaction": "interface"
          },
          "landfire_evc": {
            "geometry_type": "raster",
            "vis": {
              "layout": {
                "visibility": "none"
              }
            },
            "paint": {
              "raster-opacity": 0.5
            }
          },
          "landfire_evt": {
            "geometry_type": "raster",
            "vis": {
              "layout": {
                "visibility": "none"
              }
            },
            "paint": {
              "raster-opacity": 0.5
            }
          }
        },
        "assets": {
	  "oa_parcels": {
	    "type": "inlet",
	    "out_layer": "parcels",
            "config_def": "local_parcels"
          },
          "public_roads": {
            "type": "inlet",
            "out_layer": "roads",
            "config_def": "overture_roads",
            "name": "public_roads",
            "config": {
              "asset_type": "inlet",
              "fetch_type": "overture_duckdb",
              "interaction": "import",
              "data_type": "geojson",
              "out_layer": "roads",
              "color": [
                110,
                110,
                255
              ],
              "inpath_template": "SET s3_region='us-west-2';\nSELECT\n  * EXCLUDE geometry, names.primary AS primary_name, ST_AsGeoJSON(ST_GeomFromWKB(geometry)) as geom\nFROM\n  read_parquet('s3://overturemaps-us-west-2/release/2026-04-15.0/theme=transportation/type=segment/*', filename=true, hive_partitioning=1)\nWHERE\n  bbox.xmin > {west}\n  AND bbox.xmax < {east}\n  AND bbox.ymin > {south}\n  AND bbox.ymax < {north}\n  AND\n  LIST_CONTAINS(['primary', 'secondary', 'tertiary', 'service', 'residential'], class)\n",
              "outpath_template": "overture_roads.geojson",
              "attribution": {
                "url": "https://portal.opentopography.org/api/terms",
                "description": "Open Topography's Global DEM",
                "license": "https://portal.opentopography.org/api/terms",
                "citation": "https://portal.opentopography.org/api/terms"
              },
              "alterations": {
                "canonicalize": [
                  {
                    "to": "name",
                    "from": [
                      "primary_name",
                      "FULLRDNAME"
                    ],
                    "remove_prefix": []
                  }
                ],
                "vector_width": {
                  "attribute": "class",
                  "map": {
                    "primary": 15,
                    "secondary": 11,
                    "tertiary": 9
                  },
                  "default": 7
                }
              },
              "type": "inlet",
              "config_def": "overture_roads",
              "name": "public_roads"
            }
          },
          "public_creeks": {
            "type": "inlet",
            "out_layer": "creeks",
            "config_def": "nhd_creeks",
            "name": "public_creeks",
            "config": {
              "asset_type": "inlet",
              "fetch_type": "local_ogr",
              "interaction": "import",
              "data_type": "geojson",
              "name": "public_creeks",
              "description": "External creek vector source",
              "feature_type": "linestring",
              "color": [
                110,
                110,
                255
              ],
              "source_sublayer": "NHDFlowline",
              "inpath_template": "NHD_H_California_State_GPKG.gpkg",
              "geometry": "dataswale",
              "alterations": {
                "canonicalize": [
                  {
                    "to": "name",
                    "from": [
                      "gnis_name"
                    ],
                    "remove_prefix": []
                  }
                ],
                "vector_width": {
                  "attribute": "fcode_description",
                  "map": {
                    "Stream/River: Hydrographic Category = Ephemeral": 2,
                    "Stream/River: Hydrographic Category = Perennial": 3,
                    "Stream/River: Hydrographic Category = Intermittent": 1,
                    "Artificial Path": 1
                  },
                  "default": 1
                },
                "filter": [
                  [
                    "remove",
                    "fcode_description",
                    []
                  ]
                ]
              },
              "attribution": {
                "url": "https://www.usgs.gov/nhd",
                "description": "USGS National Hydrography Dataset",
                "license": "https://www.usgs.gov/nhd/license",
                "citation": "USGS NHD"
              },
              "type": "inlet",
              "out_layer": "creeks",
              "config_def": "nhd_creeks"
            }
          },
          "public_landmarks": {
            "type": "inlet",
            "out_layer": "landmarks",
            "config_def": "osm_poi",
            "name": "public_landmarks",
            "config": {
              "name": "public_landmarks",
              "asset_type": "inlet",
              "data_type": "geojson",
              "feature_type": "point",
              "add_labels": true,
              "template": "node[\"natural\"]({south},{west},{north},{east});out geom",
              "fetch_type": "fetch_osm",
              "type": "inlet",
              "out_layer": "landmarks",
              "config_def": "osm_poi"
            }
          },
          "public_buildings": {
            "type": "inlet",
            "out_layer": "buildings",
            "config_def": "overture_buildings",
            "name": "public_buildings",
            "config": {
              "name": "public_buildings",
              "asset_type": "inlet",
              "fetch_type": "overture_duckdb",
              "interaction": "interface",
              "alterations": {
                "canonicalize": [
                  {
                    "to": "name",
                    "from": []
                  }
                ],
                "vector_width": {
                  "default": 5
                }
              },
              "data_type": "geojson",
              "inpath_template": "SET s3_region='us-west-2';\nSELECT\n  * EXCLUDE geometry,  ST_AsGeoJSON(ST_GeomFromWKB(geometry)) as geom\nFROM\n  read_parquet('s3://overturemaps-us-west-2/release/2026-02-18.0/theme=buildings/type=building/*', filename=true, hive_partitioning=1)\nWHERE\n  bbox.xmin > {west}\n  AND bbox.xmax < {east}\n  AND bbox.ymin > {south}\n  AND bbox.ymax < {north}\n",
              "outpath_template": "/staging/raw_buildings.geojson",
              "attribution": {
                "url": "https://portal.opentopography.org/api/terms",
                "description": "Overture",
                "license": "https://portal.opentopography.org/api/terms",
                "citation": "https://portal.opentopography.org/api/terms"
              },
              "type": "inlet",
              "out_layer": "buildings",
              "config_def": "overture_buildings"
            }
          },
          "landfire_evc": {
            "type": "inlet",
            "out_layer": "landfire_evc",
            "config_def": "landfire_evc",
            "name": "landfire_evc",
            "config": {
              "name": "landfire_evc",
              "asset_type": "inlet",
              "fetch_type": "fetch_url",
              "interaction": "import",
              "data_type": "tiff",
              "inpath_template": "https://lfps.usgs.gov/arcgis/rest/services/Landfire_LF2024/LF2024_EVC_CONUS/ImageServer/exportImage?bbox={west},{south},{east},{north}&bboxSR=4326&imageSR=4326&size=2048,2048&format=tiff&pixelType=S16&noDataInterpretation=esriNoDataMatchAny&f=image",
              "attribution": {
                "url": "https://www.landfire.gov/",
                "description": "LANDFIRE 2024 Existing Vegetation Cover (EVC) \u2014 percent canopy cover by lifeform",
                "license": "Public Domain"
              },
              "type": "inlet",
              "out_layer": "landfire_evc",
              "config_def": "landfire_evc"
            }
          },
          "landfire_evt": {
            "type": "inlet",
            "out_layer": "landfire_evt",
            "config_def": "landfire_evt",
            "name": "landfire_evt",
            "config": {
              "name": "landfire_evt",
              "asset_type": "inlet",
              "fetch_type": "fetch_url",
              "interaction": "import",
              "data_type": "tiff",
              "inpath_template": "https://lfps.usgs.gov/arcgis/rest/services/Landfire_LF2024/LF2024_EVT_CONUS/ImageServer/exportImage?bbox={west},{south},{east},{north}&bboxSR=4326&imageSR=4326&size=2048,2048&format=tiff&pixelType=S16&noDataInterpretation=esriNoDataMatchAny&f=image",
              "attribution": {
                "url": "https://www.landfire.gov/",
                "description": "LANDFIRE 2024 Existing Vegetation Type (EVT) \u2014 vegetation community classification",
                "license": "Public Domain"
              },
              "type": "inlet",
              "out_layer": "landfire_evt",
              "config_def": "landfire_evt"
            }
          },
          "webmap": {
            "type": "outlet",
            "name": "webmap",
            "config_def": "webmap",
            "bake_data": true,
            "in_layers": [
              "regions",
	      "parcels",
              "roads",
              "creeks",
              "landmarks",
              "buildings",
              "hydrants",
              "watertanks",
              "hazards",
              "landfire_evc",
              "landfire_evt"
            ],
            "hidden_layers": [
              "landfire_evc",
              "landfire_evt"
            ],
            "access": [
              "public",
              "internal",
              "admin"
            ],
            "config": {
              "asset_type": "outlet",
              "name": "webmap",
              "fetch_type": "webmap",
              "interaction": "interface",
              "attribution": {
                "url": "https://portal.opentopography.org/api/terms",
                "description": "Open Topography's Global DEM",
                "license": "https://portal.opentopography.org/api/terms",
                "citation": "https://portal.opentopography.org/api/terms"
              },
              "type": "outlet",
              "config_def": "webmap",
              "in_layers": [
                "regions",
                "roads",
                "creeks",
                "landmarks",
                "buildings",
                "hydrants",
                "watertanks",
                "hazards",
                "landfire_evc",
                "landfire_evt"
              ],
              "hidden_layers": [
                "landfire_evc",
                "landfire_evt"
              ],
              "access": [
                "public",
                "internal",
                "admin"
              ]
            }
          },
          "webedit": {
            "type": "outlet",
            "name": "webedit",
            "config_def": "webedit",
            "in_layers": [
              "regions",
              "roads",
              "creeks",
              "landmarks",
              "buildings",
              "hydrants",
              "watertanks",
              "photos",
              "private_notes",
              "hazards"
            ],
            "config": {
              "asset_type": "outlet",
              "name": "webedit",
              "fetch_type": "webedit",
              "access": [
                "admin"
              ],
              "interaction": "backend",
              "attribution": {
                "url": "https://portal.opentopography.org/api/terms",
                "description": "Open Topography's Global DEM",
                "license": "https://portal.opentopography.org/api/terms",
                "citation": "https://portal.opentopography.org/api/terms"
              },
              "type": "outlet",
              "config_def": "webedit",
              "in_layers": [
                "regions",
                "roads",
                "creeks",
                "landmarks",
                "buildings",
                "hydrants",
                "watertanks",
                "photos",
                "private_notes",
                "hazards"
              ]
            }
          },
          "3dview": {
            "type": "outlet",
            "name": "3dview",
            "config_def": "3dview",
            "access": [
              "public",
              "internal",
              "admin"
            ],
            "config": {
              "asset_type": "outlet",
              "name": "3dview",
              "fetch_type": "3dview",
              "interaction": "interface",
              "attribution": {
                "description": "3D terrain view using MapLibre GL JS and terrain-RGB PMTiles"
              },
              "type": "outlet",
              "config_def": "3dview",
              "access": [
                "public",
                "internal",
                "admin"
              ]
            }
          },
          "html": {
            "type": "outlet",
            "name": "html",
            "config_def": "static_html",
            "config": {
              "asset_type": "outlet",
              "fetch_type": "html",
              "interaction": "backend",
              "attribution": {
                "url": "https://portal.opentopography.org/api/terms",
                "description": "Open Topography's Global DEM",
                "license": "https://portal.opentopography.org/api/terms",
                "citation": "https://portal.opentopography.org/api/terms"
              },
              "type": "outlet",
              "name": "html",
              "config_def": "static_html"
            }
          },
          "notebook": {
            "type": "outlet",
            "name": "notebook",
            "config_def": "jupyter_notebook",
            "access": [
              "technical"
            ],
            "config": {
              "asset_type": "outlet",
              "name": "notebook",
              "fetch_type": "jupyter_notebook",
              "interaction": "interface",
              "attribution": {
                "url": "https://portal.opentopography.org/api/terms",
                "description": "Open Topography's Global DEM",
                "license": "https://portal.opentopography.org/api/terms",
                "citation": "https://portal.opentopography.org/api/terms"
              },
              "type": "outlet",
              "config_def": "jupyter_notebook",
              "access": [
                "technical"
              ]
            }
          }
        }
      }
    }
  ]
}