{
    "type": "FeatureCollection",
    "features": [
        {
            "type": "Feature",
            "geometry": {
                "type": "Polygon",
                "coordinates": [
                    [
                        [
                            -123.535325598,
                            39.639558262
                        ],
                        [
                            -123.468500752,
                            39.639558262
                        ],
                        [
                            -123.468500752,
                            39.690456417
                        ],
                        [
                            -123.535325598,
                            39.690456417
                        ],
                        [
                            -123.535325598,
                            39.639558262
                        ]
                    ]
                ]
            },
            "properties": {
                "name": "laytonville",
                "description": "laytonville",
                "app_url": "https://fireatlas.org:9000",
                "versioned_outlets": [],
                "default_h3_resolution": 10,
                "data_root": "/root/swales_dev",
                "shared_dir": "/root/data",
                "base_url": "https://fireatlas.org/laytonville",
                "port": 9000,
                "admin_emails": [],
                "logo_url": "",
                "cloud": {"outlets": ["webmap", "console"]},
                "layers": {
                    "regions": {
                        "geometry_type": "polygon",
                        "color": [
                            50,
                            50,
                            50
                        ],
                        "fill_opacity": 0.3,
                        "interaction": "interface",
                        "access": [
                            "admin"
                        ],
                        "editable_columns": [
                            {
                                "name": "name",
                                "type": "string",
                                "default": ""
                            }
                        ]
                    },
                    "roads": {
                        "geometry_type": "linestring",
                        "color": [
                            20,
                            20,
                            20
                        ],
                        "add_labels": true,
                        "label_color": [
                            220,
                            0,
                            0
                        ],
                        "label_expression": "if(\"name\" IS NOT NULL AND length(trim(\"name\")) > 3, \"name\", NULL)",
                        "interaction": "interface",
                        "vector_width": true,
                        "editable_columns": [
                            {
                                "name": "name",
                                "type": "string",
                                "default": "Road"
                            },
                            {
                                "name": "STREETTYPE",
                                "type": "radio",
                                "values": [
                                    {
                                        "STREETTYPE": "RD",
                                        "vector_width": 15
                                    },
                                    {
                                        "STREETTYPE": "ST",
                                        "vector_width": 10
                                    },
                                    {
                                        "STREETTYPE": "Other",
                                        "vector_width": 8
                                    }
                                ],
                                "default": {
                                    "STREETTYPE": "RD",
                                    "vector_width": 15
                                }
                            }
                        ]
                    },
                    "creeks": {
                        "geometry_type": "linestring",
                        "add_labels": true,
                        "color": [
                            50,
                            50,
                            200
                        ],
                        "interaction": "interface",
                        "vector_width": true,
                        "editable_columns": [
                            {
                                "name": "name",
                                "type": "string",
                                "default": ""
                            }
                        ]
                    },
                    "landmarks": {
                        "geometry_type": "point",
                        "color": [
                            20,
                            155,
                            200
                        ],
                        "add_labels": true,
                        "interaction": "interface",
                        "editable_columns": [
                            {
                                "name": "name",
                                "type": "string",
                                "default": ""
                            }
                        ]
                    },
                    "landfire_evc": {
                        "geometry_type": "raster",
                        "vis": {
                            "layout": {
                                "visibility": "none"
                            }
                        },
                        "paint": {
                            "raster-opacity": 0.5
                        }
                    },
                    "landfire_evt": {
                        "geometry_type": "raster",
                        "vis": {
                            "layout": {
                                "visibility": "none"
                            }
                        },
                        "paint": {
                            "raster-opacity": 0.5
                        }
                    },
                    "roads_index": {
                        "geometry_type": "polygon",
                        "color": [
                            100,
                            55,
                            50
                        ],
                        "fill_color": [
                            100,
                            55,
                            50
                        ],
                        "fill_opacity": 0.3,
                        "vis": {
                            "layout": {
                                "visibility": "none"
                            }
                        }
                    },
                    "creeks_index": {
                        "geometry_type": "polygon",
                        "color": [
                            50,
                            55,
                            255
                        ],
                        "fill_color": [
                            50,
                            55,
                            255
                        ],
                        "fill_opacity": 0.3,
                        "vis": {
                            "layout": {
                                "visibility": "none"
                            }
                        }
                    },
                    "burns_index": {
                        "geometry_type": "polygon",
                        "color": [
                            200,
                            55,
                            55
                        ],
                        "fill_color": [
                            200,
                            55,
                            55
                        ],
                        "fill_opacity": 0.3,
                        "vis": {
                            "layout": {
                                "visibility": "none"
                            }
                        }
                    },
                    "processing_sites_index": {
                        "geometry_type": "polygon",
                        "color": [
                            128,
                            0,
                            128
                        ],
                        "fill_color": [
                            128,
                            0,
                            128
                        ],
                        "fill_opacity": 0.3,
                        "vis": {
                            "layout": {
                                "visibility": "none"
                            }
                        }
                    },
                    "burns": {
                        "geometry_type": "polygon",
                        "color": [
                            155,
                            5,
                            5
                        ],
                        "fill_color": [
                            255,
                            50,
                            50
                        ],
                        "add_labels": true,
                        "interaction": "interface",
                        "access": [
                            "admin"
                        ],
                        "fill_opacity": 0.4,
                        "editable_columns": [
                            {
                                "name": "name",
                                "type": "string",
                                "default": "Treatment Area"
                            }
                        ]
                    },
                    "processing_sites": {
                        "geometry_type": "point",
                        "color": [
                            128,
                            0,
                            128
                        ],
                        "add_labels": true,
                        "interaction": "interface",
                        "access": [
                            "admin"
                        ],
                        "editable_columns": [
                            {
                                "name": "name",
                                "type": "string",
                                "default": "Processing Site"
                            }
                        ]
                    }
                },
                "assets": {
                    "console": {"type": "outlet", "name": "console", "config_def": "console"},
                    "biochar_simulation": {
                        "type": "eddy",
                        "config_def": "biochar_simulation"
                    },
                    "burns_h3": {
                        "type": "eddy",
                        "config_def": "h3_cells",
                        "in_layer": "burns",
                        "out_layer": "burns_index",
                        "starting_resolution": 11,
                        "max_cells": 100
                    },
                    "creeks_h3": {
                        "type": "eddy",
                        "config_def": "h3_cells",
                        "in_layer": "creeks",
                        "out_layer": "creeks_index",
                        "starting_resolution": 11,
                        "max_cells": 100
                    },
                    "fuel_mass_landfire": {
                        "type": "eddy",
                        "config_def": "fuel_mass_landfire"
                    },
                    "landfire_evc": {
                        "type": "inlet",
                        "out_layer": "landfire_evc",
                        "config_def": "landfire_evc"
                    },
                    "landfire_evt": {
                        "type": "inlet",
                        "out_layer": "landfire_evt",
                        "config_def": "landfire_evt"
                    },
                    "notebook": {
                        "type": "outlet",
                        "name": "notebook",
                        "config_def": "jupyter_notebook",
                        "access": [
                            "technical"
                        ]
                    },
                    "processing_sites_h3": {
                        "type": "eddy",
                        "config_def": "processing_sites_h3",
                        "starting_resolution": 11
                    },
                    "public_creeks": {
                        "type": "inlet",
                        "out_layer": "creeks",
                        "config_def": "nhd_creeks"
                    },
                    "public_landmarks": {
                        "type": "inlet",
                        "out_layer": "landmarks",
                        "config_def": "osm_poi"
                    },
                    "public_roads": {
                        "type": "inlet",
                        "out_layer": "roads",
                        "config_def": "overture_roads"
                    },
                    "roads_h3": {
                        "type": "eddy",
                        "config_def": "h3_cells",
                        "in_layer": "roads",
                        "out_layer": "roads_index",
                        "starting_resolution": 11
                    },
                    "sqldb": {
                        "type": "outlet",
                        "config_def": "sqldb",
                        "layers": [
                            "roads",
                            "creeks",
                            "burns",
                            "processing_sites"
                        ]
                    },
                    "sqlquery": {
                        "type": "outlet",
                        "name": "sqlquery",
                        "config_def": "sqlquery",
                        "access": [
                            "admin"
                        ]
                    },
                    "webedit": {
                        "type": "outlet",
                        "name": "webedit",
                        "in_layers": [
                            "regions",
                            "roads",
                            "creeks",
                            "landmarks",
                            "burns",
                            "processing_sites"
                        ],
                        "config_def": "webedit"
                    },
                    "webmap": {
                        "show_user_location": true,
                        "type": "outlet",
                        "name": "webmap",
                        "in_layers": [
                            "regions",
                            "roads",
                            "creeks",
                            "landmarks",
                            "landfire_evc",
                            "landfire_evt",
                            "roads_index",
                            "creeks_index",
                            "burns_index",
                            "processing_sites_index",
                            "burns",
                            "processing_sites"
                        ],
                        "config_def": "webmap",
                        "access": [
                            "public",
                            "internal",
                            "admin"
                        ]
                    }
                }
            }
        }
    ]
}
