{"type": "FeatureCollection", "features": [{"type": "Feature", "properties": {"name": "scvfd", "app_url": "https://fireatlas.org:9000", "data_root": "/root/swales_dev", "layers_path": "/root/swales_dev/app/configuration/scvfd_layers.json", "assets_path": "/root/swales_dev/app/configuration/scvfd_assets.json", "shared_dir": "/root/data/", "versioned_outlets": ["html", "webmap", "private_webmap", "webedit", "private_runbook"], "admin_emails": ["gateless@gmail.com", "planephun@gmail.com"], "email_photo_default_layer": "private_notes", "base_url": "https://fireatlas.org/scvfd", "port": 9000, "logo_url": "https://cdn.prod.website-files.com/648ea312c78f6d7a5ca19989/64c2933be813b5edc51b9063_WFDlogo_DS.png", "config_only": false}, "geometry": {"coordinates": [
[
    [-123.99695934595182, 40.16],
    [-123.83251148547124, 40.16],
    [-123.83251148547124, 40.26],
    [-123.99695934595182, 40.26],
    [-123.99695934595182, 40.16]
  ]
], "type": "Polygon"}}]}
