{"type": "FeatureCollection", "features": [{"type": "Feature", "properties": {"name": "westport", "app_url": "https://fireatlas.org:9000", "data_root": "/root/swales_dev", "layers_path": "/root/swales_dev/app/configuration/westport_layers.json", "assets_path": "/root/swales_dev/app/configuration/westport_assets.json", "shared_dir": "/root/data/", "versioned_outlets": ["html", "webmap"], "admin_emails": ["westportfire1@gmail.com", "tim@caflc.dev", "gateless@gmail.com"], "email_photo_default_layer": "private_notes", "base_url": "https://fireatlas.org/westport", "port": 9000, "logo_url": "https://cdn.prod.website-files.com/648ea312c78f6d7a5ca19989/64c2933be813b5edc51b9063_WFDlogo_DS.png"}, "geometry": {"coordinates": [
[
    [-123.85333388805361, 39.53857292439969],
    [-123.67763908625702, 39.53857292439969],
    [-123.67763908625702, 39.89595306214338],
    [-123.85333388805361, 39.89595306214338],
    [-123.85333388805361, 39.53857292439969]
  ]
], "type": "Polygon"}}]}
